FENGYUN 1C DEB          
1 32226U 99025CVY 17346.31099480  .00008815  00000-0  10066-2 0  9992
2 32226  99.4720 120.6584 0032150 147.0570 213.2652 14.86005454553831
